KUIPER-00104            
1 65142U 25171L   26011.27295196  .00003026  00000+0  45912-3 0  9999
2 65142  51.9024  51.5287 0004710 354.6639   5.4271 14.76668887 24395
KUIPER-00105            
1 65143U 25171M   26011.13377584  .00013521  00000+0  17961-2 0  9990
2 65143  51.9013  60.1623 0010846 279.7496  80.2241 14.79968060 24262
KUIPER-00106            
1 65144U 25171N   26011.30056142  .00006380  00000+0  57129-3 0  9990
2 65144  51.8948  55.6976 0008129 271.2978  88.7060 14.96912720 24344
KUIPER-00107            
1 65145U 25171P   26011.28777427  .00032253  00000+0  42441-2 0  9992
2 65145  51.9020  41.9197 0000360  95.9372 264.1631 14.79887615 24538
KUIPER-00108            
1 65146U 25171Q   26011.30802715 -.00004087  00000+0 -50717-3 0  9997
2 65146  51.9029  54.3364 0005501 296.4810  63.5587 14.79924105 24367
KUIPER-00109            
1 65147U 25171R   26011.27965393  .00004733  00000+0  64949-3 0  9994
2 65147  51.9030  49.4047 0011397 301.9846  58.0008 14.79904831 24422
KUIPER-00110            
1 65148U 25171S   26011.16485961  .00004881  00000+0  66881-3 0  9992
2 65148  51.9011  62.5113 0002239 346.3511  13.7391 14.79933925 24226
KUIPER-00111            
1 65149U 25171T   26011.32836060  .00005397  00000+0  73677-3 0  9995
2 65149  51.8979  66.7141 0007839 294.0341  65.9800 14.79899537 24186
