<?xml version="1.0" encoding="UTF-8"?>
<ndm xmlns:xsi="http://www.w3.org/2001/XMLSchema-instance" xsi:noNamespaceSchemaLocation="https://sanaregistry.org/r/ndmxml_unqualified/ndmxml-2.0.0-master-2.0.xsd">
<omm id="CCSDS_OMM_VERS" version="2.0">
<header><CREATION_DATE/><ORIGINATOR/></header><body><segment><metadata><OBJECT_NAME>KUIPER-00104</OBJECT_NAME><OBJECT_ID>2025-171L</OBJECT_ID><CENTER_NAME>EARTH</CENTER_NAME><REF_FRAME>TEME</REF_FRAME><TIME_SYSTEM>UTC</TIME_SYSTEM><MEAN_ELEMENT_THEORY>SGP4</MEAN_ELEMENT_THEORY></metadata><data><meanElements><EPOCH>2026-01-11T06:33:03.049344</EPOCH><MEAN_MOTION>14.76668887</MEAN_MOTION><ECCENTRICITY>.00047106</ECCENTRICITY><INCLINATION>51.9024</INCLINATION><RA_OF_ASC_NODE>51.5287</RA_OF_ASC_NODE><ARG_OF_PERICENTER>354.6639</ARG_OF_PERICENTER><MEAN_ANOMALY>5.4271</MEAN_ANOMALY></meanElements><tleParameters><EPHEMERIS_TYPE>0</EPHEMERIS_TYPE><CLASSIFICATION_TYPE>U</CLASSIFICATION_TYPE><NORAD_CAT_ID>65142</NORAD_CAT_ID><ELEMENT_SET_NO>999</ELEMENT_SET_NO><REV_AT_EPOCH>2439</REV_AT_EPOCH><BSTAR>.45911537E-3</BSTAR><MEAN_MOTION_DOT>.3026E-4</MEAN_MOTION_DOT><MEAN_MOTION_DDOT>0</MEAN_MOTION_DDOT></tleParameters></data></segment></body></omm>
<omm id="CCSDS_OMM_VERS" version="2.0">
<header><CREATION_DATE/><ORIGINATOR/></header><body><segment><metadata><OBJECT_NAME>KUIPER-00105</OBJECT_NAME><OBJECT_ID>2025-171M</OBJECT_ID><CENTER_NAME>EARTH</CENTER_NAME><REF_FRAME>TEME</REF_FRAME><TIME_SYSTEM>UTC</TIME_SYSTEM><MEAN_ELEMENT_THEORY>SGP4</MEAN_ELEMENT_THEORY></metadata><data><meanElements><EPOCH>2026-01-11T03:12:38.232576</EPOCH><MEAN_MOTION>14.79968060</MEAN_MOTION><ECCENTRICITY>.00108462</ECCENTRICITY><INCLINATION>51.9013</INCLINATION><RA_OF_ASC_NODE>60.1623</RA_OF_ASC_NODE><ARG_OF_PERICENTER>279.7496</ARG_OF_PERICENTER><MEAN_ANOMALY>80.2241</MEAN_ANOMALY></meanElements><tleParameters><EPHEMERIS_TYPE>0</EPHEMERIS_TYPE><CLASSIFICATION_TYPE>U</CLASSIFICATION_TYPE><NORAD_CAT_ID>65143</NORAD_CAT_ID><ELEMENT_SET_NO>999</ELEMENT_SET_NO><REV_AT_EPOCH>2426</REV_AT_EPOCH><BSTAR>.17961487E-2</BSTAR><MEAN_MOTION_DOT>.13521E-3</MEAN_MOTION_DOT><MEAN_MOTION_DDOT>0</MEAN_MOTION_DDOT></tleParameters></data></segment></body></omm>
<omm id="CCSDS_OMM_VERS" version="2.0">
<header><CREATION_DATE/><ORIGINATOR/></header><body><segment><metadata><OBJECT_NAME>KUIPER-00106</OBJECT_NAME><OBJECT_ID>2025-171N</OBJECT_ID><CENTER_NAME>EARTH</CENTER_NAME><REF_FRAME>TEME</REF_FRAME><TIME_SYSTEM>UTC</TIME_SYSTEM><MEAN_ELEMENT_THEORY>SGP4</MEAN_ELEMENT_THEORY></metadata><data><meanElements><EPOCH>2026-01-11T07:12:48.506688</EPOCH><MEAN_MOTION>14.96912720</MEAN_MOTION><ECCENTRICITY>.00081294</ECCENTRICITY><INCLINATION>51.8948</INCLINATION><RA_OF_ASC_NODE>55.6976</RA_OF_ASC_NODE><ARG_OF_PERICENTER>271.2978</ARG_OF_PERICENTER><MEAN_ANOMALY>88.7060</MEAN_ANOMALY></meanElements><tleParameters><EPHEMERIS_TYPE>0</EPHEMERIS_TYPE><CLASSIFICATION_TYPE>U</CLASSIFICATION_TYPE><NORAD_CAT_ID>65144</NORAD_CAT_ID><ELEMENT_SET_NO>999</ELEMENT_SET_NO><REV_AT_EPOCH>2434</REV_AT_EPOCH><BSTAR>.57128505E-3</BSTAR><MEAN_MOTION_DOT>.638E-4</MEAN_MOTION_DOT><MEAN_MOTION_DDOT>0</MEAN_MOTION_DDOT></tleParameters></data></segment></body></omm>
<omm id="CCSDS_OMM_VERS" version="2.0">
<header><CREATION_DATE/><ORIGINATOR/></header><body><segment><metadata><OBJECT_NAME>KUIPER-00107</OBJECT_NAME><OBJECT_ID>2025-171P</OBJECT_ID><CENTER_NAME>EARTH</CENTER_NAME><REF_FRAME>TEME</REF_FRAME><TIME_SYSTEM>UTC</TIME_SYSTEM><MEAN_ELEMENT_THEORY>SGP4</MEAN_ELEMENT_THEORY></metadata><data><meanElements><EPOCH>2026-01-11T06:54:23.696928</EPOCH><MEAN_MOTION>14.79887615</MEAN_MOTION><ECCENTRICITY>.00003606</ECCENTRICITY><INCLINATION>51.9020</INCLINATION><RA_OF_ASC_NODE>41.9197</RA_OF_ASC_NODE><ARG_OF_PERICENTER>95.9372</ARG_OF_PERICENTER><MEAN_ANOMALY>264.1631</MEAN_ANOMALY></meanElements><tleParameters><EPHEMERIS_TYPE>0</EPHEMERIS_TYPE><CLASSIFICATION_TYPE>U</CLASSIFICATION_TYPE><NORAD_CAT_ID>65145</NORAD_CAT_ID><ELEMENT_SET_NO>999</ELEMENT_SET_NO><REV_AT_EPOCH>2453</REV_AT_EPOCH><BSTAR>.42440611E-2</BSTAR><MEAN_MOTION_DOT>.32253E-3</MEAN_MOTION_DOT><MEAN_MOTION_DDOT>0</MEAN_MOTION_DDOT></tleParameters></data></segment></body></omm>
<omm id="CCSDS_OMM_VERS" version="2.0">
<header><CREATION_DATE/><ORIGINATOR/></header><body><segment><metadata><OBJECT_NAME>KUIPER-00108</OBJECT_NAME><OBJECT_ID>2025-171Q</OBJECT_ID><CENTER_NAME>EARTH</CENTER_NAME><REF_FRAME>TEME</REF_FRAME><TIME_SYSTEM>UTC</TIME_SYSTEM><MEAN_ELEMENT_THEORY>SGP4</MEAN_ELEMENT_THEORY></metadata><data><meanElements><EPOCH>2026-01-11T07:23:33.545760</EPOCH><MEAN_MOTION>14.79924105</MEAN_MOTION><ECCENTRICITY>.00055017</ECCENTRICITY><INCLINATION>51.9029</INCLINATION><RA_OF_ASC_NODE>54.3364</RA_OF_ASC_NODE><ARG_OF_PERICENTER>296.4810</ARG_OF_PERICENTER><MEAN_ANOMALY>63.5587</MEAN_ANOMALY></meanElements><tleParameters><EPHEMERIS_TYPE>0</EPHEMERIS_TYPE><CLASSIFICATION_TYPE>U</CLASSIFICATION_TYPE><NORAD_CAT_ID>65146</NORAD_CAT_ID><ELEMENT_SET_NO>999</ELEMENT_SET_NO><REV_AT_EPOCH>2436</REV_AT_EPOCH><BSTAR>-.50716533E-3</BSTAR><MEAN_MOTION_DOT>-.4087E-4</MEAN_MOTION_DOT><MEAN_MOTION_DDOT>0</MEAN_MOTION_DDOT></tleParameters></data></segment></body></omm>
<omm id="CCSDS_OMM_VERS" version="2.0">
<header><CREATION_DATE/><ORIGINATOR/></header><body><segment><metadata><OBJECT_NAME>KUIPER-00109</OBJECT_NAME><OBJECT_ID>2025-171R</OBJECT_ID><CENTER_NAME>EARTH</CENTER_NAME><REF_FRAME>TEME</REF_FRAME><TIME_SYSTEM>UTC</TIME_SYSTEM><MEAN_ELEMENT_THEORY>SGP4</MEAN_ELEMENT_THEORY></metadata><data><meanElements><EPOCH>2026-01-11T06:42:42.099552</EPOCH><MEAN_MOTION>14.79904831</MEAN_MOTION><ECCENTRICITY>.00113975</ECCENTRICITY><INCLINATION>51.9030</INCLINATION><RA_OF_ASC_NODE>49.4047</RA_OF_ASC_NODE><ARG_OF_PERICENTER>301.9846</ARG_OF_PERICENTER><MEAN_ANOMALY>58.0008</MEAN_ANOMALY></meanElements><tleParameters><EPHEMERIS_TYPE>0</EPHEMERIS_TYPE><CLASSIFICATION_TYPE>U</CLASSIFICATION_TYPE><NORAD_CAT_ID>65147</NORAD_CAT_ID><ELEMENT_SET_NO>999</ELEMENT_SET_NO><REV_AT_EPOCH>2442</REV_AT_EPOCH><BSTAR>.64949211E-3</BSTAR><MEAN_MOTION_DOT>.4733E-4</MEAN_MOTION_DOT><MEAN_MOTION_DDOT>0</MEAN_MOTION_DDOT></tleParameters></data></segment></body></omm>
<omm id="CCSDS_OMM_VERS" version="2.0">
<header><CREATION_DATE/><ORIGINATOR/></header><body><segment><metadata><OBJECT_NAME>KUIPER-00110</OBJECT_NAME><OBJECT_ID>2025-171S</OBJECT_ID><CENTER_NAME>EARTH</CENTER_NAME><REF_FRAME>TEME</REF_FRAME><TIME_SYSTEM>UTC</TIME_SYSTEM><MEAN_ELEMENT_THEORY>SGP4</MEAN_ELEMENT_THEORY></metadata><data><meanElements><EPOCH>2026-01-11T03:57:23.870304</EPOCH><MEAN_MOTION>14.79933925</MEAN_MOTION><ECCENTRICITY>.00022397</ECCENTRICITY><INCLINATION>51.9011</INCLINATION><RA_OF_ASC_NODE>62.5113</RA_OF_ASC_NODE><ARG_OF_PERICENTER>346.3511</ARG_OF_PERICENTER><MEAN_ANOMALY>13.7391</MEAN_ANOMALY></meanElements><tleParameters><EPHEMERIS_TYPE>0</EPHEMERIS_TYPE><CLASSIFICATION_TYPE>U</CLASSIFICATION_TYPE><NORAD_CAT_ID>65148</NORAD_CAT_ID><ELEMENT_SET_NO>999</ELEMENT_SET_NO><REV_AT_EPOCH>2422</REV_AT_EPOCH><BSTAR>.66881458E-3</BSTAR><MEAN_MOTION_DOT>.4881E-4</MEAN_MOTION_DOT><MEAN_MOTION_DDOT>0</MEAN_MOTION_DDOT></tleParameters></data></segment></body></omm>
<omm id="CCSDS_OMM_VERS" version="2.0">
<header><CREATION_DATE/><ORIGINATOR/></header><body><segment><metadata><OBJECT_NAME>KUIPER-00111</OBJECT_NAME><OBJECT_ID>2025-171T</OBJECT_ID><CENTER_NAME>EARTH</CENTER_NAME><REF_FRAME>TEME</REF_FRAME><TIME_SYSTEM>UTC</TIME_SYSTEM><MEAN_ELEMENT_THEORY>SGP4</MEAN_ELEMENT_THEORY></metadata><data><meanElements><EPOCH>2026-01-11T07:52:50.355840</EPOCH><MEAN_MOTION>14.79899537</MEAN_MOTION><ECCENTRICITY>.00078391</ECCENTRICITY><INCLINATION>51.8979</INCLINATION><RA_OF_ASC_NODE>66.7141</RA_OF_ASC_NODE><ARG_OF_PERICENTER>294.0341</ARG_OF_PERICENTER><MEAN_ANOMALY>65.9800</MEAN_ANOMALY></meanElements><tleParameters><EPHEMERIS_TYPE>0</EPHEMERIS_TYPE><CLASSIFICATION_TYPE>U</CLASSIFICATION_TYPE><NORAD_CAT_ID>65149</NORAD_CAT_ID><ELEMENT_SET_NO>999</ELEMENT_SET_NO><REV_AT_EPOCH>2418</REV_AT_EPOCH><BSTAR>.73677059E-3</BSTAR><MEAN_MOTION_DOT>.5397E-4</MEAN_MOTION_DOT><MEAN_MOTION_DDOT>0</MEAN_MOTION_DDOT></tleParameters></data></segment></body></omm>

</ndm>
